[{"OBJECT_NAME":"STARLINK-3189","OBJECT_ID":"2022-010J","EPOCH":"2026-03-09T21:23:30.939648","MEAN_MOTION":15.0883681,"ECCENTRICITY":0.00014429,"INCLINATION":53.2188,"RA_OF_ASC_NODE":278.2179,"ARG_OF_PERICENTER":98.015,"MEAN_ANOMALY":262.1006,"EPHEMERIS_TYPE":0,"CLASSIFICATION_TYPE":"U","NORAD_CAT_ID":51464,"ELEMENT_SET_NO":999,"REV_AT_EPOCH":22735,"BSTAR":2.045425e-5,"MEAN_MOTION_DOT":3.8e-7,"MEAN_MOTION_DDOT":0},{"OBJECT_NAME":"OBJECT J","OBJECT_ID":"2023-091J","EPOCH":"2026-03-09T22:57:45.383328","MEAN_MOTION":15.13201377,"ECCENTRICITY":0.00147906,"INCLINATION":97.519,"RA_OF_ASC_NODE":123.4537,"ARG_OF_PERICENTER":127.2759,"MEAN_ANOMALY":232.9824,"EPHEMERIS_TYPE":0,"CLASSIFICATION_TYPE":"U","NORAD_CAT_ID":57174,"ELEMENT_SET_NO":999,"REV_AT_EPOCH":14862,"BSTAR":0.00032020689,"MEAN_MOTION_DOT":5.634e-5,"MEAN_MOTION_DDOT":0}]
